{
  "type": "FeatureCollection",
  "features": [
    {
      "type": "Feature",
      "properties": {
        "norad_id": 41772,
        "name": "SKYSAT-C5",
        "group": "resource",
        "lat": 25.960777447488333,
        "lon": -154.20022455492366,
        "alt_km": 456.7531372710746,
        "timestamp": "2025-12-04T05:42:43.035294+00:00",
        "meta_object_name": "SKYSAT-C5",
        "meta_object_id": "2016-058C",
        "meta_epoch": "2025-12-03T16:31:57.114336",
        "meta_mean_motion": 15.35440065,
        "meta_eccentricity": 0.00030621,
        "meta_inclination": 97.0806,
        "meta_ra_of_asc_node": 21.8023,
        "meta_arg_of_pericenter": 124.5892,
        "meta_mean_anomaly": 235.5641,
        "meta_ephemeris_type": 0,
        "meta_classification_type": "U",
        "meta_norad_cat_id": 41772,
        "meta_element_set_no": 999,
        "meta_rev_at_epoch": 51377,
        "meta_bstar": 0.0025572225,
        "meta_mean_motion_dot": 0.00088899,
        "meta_mean_motion_ddot": 0,
        "tle_line1": "1 41772U 16058C   25337.68885549  .00088899  00000+0  25572-2 0  9998",
        "tle_line2": "2 41772  97.0806  21.8023 0003062 124.5892 235.5641 15.35440065513773"
      },
      "geometry": {
        "type": "Point",
        "coordinates": [
          -154.20022455492366,
          25.960777447488333
        ]
      }
    },
    {
      "type": "Feature",
      "properties": {
        "norad_id": 41773,
        "name": "SKYSAT-C2",
        "group": "resource",
        "lat": 69.73268280810755,
        "lon": -157.32992856037902,
        "alt_km": 446.2747583521941,
        "timestamp": "2025-12-04T05:42:43.035304+00:00",
        "meta_object_name": "SKYSAT-C2",
        "meta_object_id": "2016-058D",
        "meta_epoch": "2025-12-03T19:51:52.184448",
        "meta_mean_motion": 15.36958059,
        "meta_eccentricity": 0.00050629,
        "meta_inclination": 97.0367,
        "meta_ra_of_asc_node": 2.7345,
        "meta_arg_of_pericenter": 57.0496,
        "meta_mean_anomaly": 303.1235,
        "meta_ephemeris_type": 0,
        "meta_classification_type": "U",
        "meta_norad_cat_id": 41773,
        "meta_element_set_no": 999,
        "meta_rev_at_epoch": 51499,
        "meta_bstar": 0.00056123666,
        "meta_mean_motion_dot": 0.00020246,
        "meta_mean_motion_ddot": 0,
        "tle_line1": "1 41773U 16058D   25337.82768732  .00020246  00000+0  56124-3 0  9999",
        "tle_line2": "2 41773  97.0367   2.7345 0005062  57.0496 303.1235 15.36958059514997"
      },
      "geometry": {
        "type": "Point",
        "coordinates": [
          -157.32992856037902,
          69.73268280810755
        ]
      }
    },
    {
      "type": "Feature",
      "properties": {
        "norad_id": 41774,
        "name": "SKYSAT-C3",
        "group": "resource",
        "lat": 79.58836843355613,
        "lon": -29.073875882340054,
        "alt_km": 426.25575677280995,
        "timestamp": "2025-12-04T05:42:43.035314+00:00",
        "meta_object_name": "SKYSAT-C3",
        "meta_object_id": "2016-058E",
        "meta_epoch": "2025-12-03T13:48:07.589376",
        "meta_mean_motion": 15.4390114,
        "meta_eccentricity": 0.00013882,
        "meta_inclination": 96.931,
        "meta_ra_of_asc_node": 11.7512,
        "meta_arg_of_pericenter": 101.7573,
        "meta_mean_anomaly": 258.3832,
        "meta_ephemeris_type": 0,
        "meta_classification_type": "U",
        "meta_norad_cat_id": 41774,
        "meta_element_set_no": 999,
        "meta_rev_at_epoch": 51584,
        "meta_bstar": 0.00057340168,
        "meta_mean_motion_dot": 0.00026017,
        "meta_mean_motion_ddot": 0,
        "tle_line1": "1 41774U 16058E   25337.57508784  .00026017  00000+0  57340-3 0  9994",
        "tle_line2": "2 41774  96.9310  11.7512 0001388 101.7573 258.3832 15.43901140515846"
      },
      "geometry": {
        "type": "Point",
        "coordinates": [
          -29.073875882340054,
          79.58836843355613
        ]
      }
    },
    {
      "type": "Feature",
      "properties": {
        "norad_id": 41785,
        "name": "ALSAT 1B",
        "group": "resource",
        "lat": -16.29643667617401,
        "lon": -7.314102451620956,
        "alt_km": 665.2944728534749,
        "timestamp": "2025-12-04T05:42:43.035324+00:00",
        "meta_object_name": "ALSAT 1B",
        "meta_object_id": "2016-059C",
        "meta_epoch": "2025-12-03T23:15:40.298688",
        "meta_mean_motion": 14.72060476,
        "meta_eccentricity": 0.00104073,
        "meta_inclination": 97.7819,
        "meta_ra_of_asc_node": 350.1374,
        "meta_arg_of_pericenter": 128.6697,
        "meta_mean_anomaly": 231.5443,
        "meta_ephemeris_type": 0,
        "meta_classification_type": "U",
        "meta_norad_cat_id": 41785,
        "meta_element_set_no": 999,
        "meta_rev_at_epoch": 49185,
        "meta_bstar": 0.00012547311,
        "meta_mean_motion_dot": 7.42e-06,
        "meta_mean_motion_ddot": 0,
        "tle_line1": "1 41785U 16059C   25337.96921642  .00000742  00000+0  12547-3 0  9999",
        "tle_line2": "2 41785  97.7819 350.1374 0010407 128.6697 231.5443 14.72060476491858"
      },
      "geometry": {
        "type": "Point",
        "coordinates": [
          -7.314102451620956,
          -16.29643667617401
        ]
      }
    },
    {
      "type": "Feature",
      "properties": {
        "norad_id": 41787,
        "name": "PATHFINDER 1",
        "group": "resource",
        "lat": -27.92259648415557,
        "lon": 157.2327690535296,
        "alt_km": 679.5605057730563,
        "timestamp": "2025-12-04T05:42:43.035334+00:00",
        "meta_object_name": "PATHFINDER 1",
        "meta_object_id": "2016-059E",
        "meta_epoch": "2025-12-03T23:51:34.293024",
        "meta_mean_motion": 14.6729787,
        "meta_eccentricity": 0.00299645,
        "meta_inclination": 97.8138,
        "meta_ra_of_asc_node": 341.1737,
        "meta_arg_of_pericenter": 107.7101,
        "meta_mean_anomaly": 252.7379,
        "meta_ephemeris_type": 0,
        "meta_classification_type": "U",
        "meta_norad_cat_id": 41787,
        "meta_element_set_no": 999,
        "meta_rev_at_epoch": 49108,
        "meta_bstar": 0.00027412585,
        "meta_mean_motion_dot": 1.51e-05,
        "meta_mean_motion_ddot": 0,
        "tle_line1": "1 41787U 16059E   25337.99414691  .00001510  00000+0  27413-3 0  9997",
        "tle_line2": "2 41787  97.8138 341.1737 0029964 107.7101 252.7379 14.67297870491086"
      },
      "geometry": {
        "type": "Point",
        "coordinates": [
          157.2327690535296,
          -27.92259648415557
        ]
      }
    },
    {
      "type": "Feature",
      "properties": {
        "norad_id": 41790,
        "name": "SCATSAT 1",
        "group": "resource",
        "lat": -25.752045771030243,
        "lon": -149.1606853963981,
        "alt_km": 613.7170553301694,
        "timestamp": "2025-12-04T05:42:43.035345+00:00",
        "meta_object_name": "SCATSAT 1",
        "meta_object_id": "2016-059H",
        "meta_epoch": "2025-12-03T17:25:13.017504",
        "meta_mean_motion": 14.78884432,
        "meta_eccentricity": 0.00557995,
        "meta_inclination": 98.1479,
        "meta_ra_of_asc_node": 34.2837,
        "meta_arg_of_pericenter": 156.6391,
        "meta_mean_anomaly": 203.7374,
        "meta_ephemeris_type": 0,
        "meta_classification_type": "U",
        "meta_norad_cat_id": 41790,
        "meta_element_set_no": 999,
        "meta_rev_at_epoch": 7269,
        "meta_bstar": 0.00037933954,
        "meta_mean_motion_dot": 2.812e-05,
        "meta_mean_motion_ddot": 0,
        "tle_line1": "1 41790U 16059H   25337.72584511  .00002812  00000+0  37934-3 0  9996",
        "tle_line2": "2 41790  98.1479  34.2837 0055799 156.6391 203.7374 14.78884432 72693"
      },
      "geometry": {
        "type": "Point",
        "coordinates": [
          -149.1606853963981,
          -25.752045771030243
        ]
      }
    },
    {
      "type": "Feature",
      "properties": {
        "norad_id": 41875,
        "name": "GOKTURK 1A",
        "group": "resource",
        "lat": 62.1895003918727,
        "lon": -145.03409566709874,
        "alt_km": 677.5362228254171,
        "timestamp": "2025-12-04T05:42:43.035355+00:00",
        "meta_object_name": "GOKTURK 1A",
        "meta_object_id": "2016-073A",
        "meta_epoch": "2025-12-03T22:51:23.656896",
        "meta_mean_motion": 14.6272895,
        "meta_eccentricity": 0.00012254,
        "meta_inclination": 98.1431,
        "meta_ra_of_asc_node": 230.4348,
        "meta_arg_of_pericenter": 90.5478,
        "meta_mean_anomaly": 269.5864,
        "meta_ephemeris_type": 0,
        "meta_classification_type": "U",
        "meta_norad_cat_id": 41875,
        "meta_element_set_no": 999,
        "meta_rev_at_epoch": 48028,
        "meta_bstar": 0.00021442402,
        "meta_mean_motion_dot": 1.046e-05,
        "meta_mean_motion_ddot": 0,
        "tle_line1": "1 41875U 16073A   25337.95235714  .00001046  00000+0  21442-3 0  9994",
        "tle_line2": "2 41875  98.1431 230.4348 0001225  90.5478 269.5864 14.62728950480286"
      },
      "geometry": {
        "type": "Point",
        "coordinates": [
          -145.03409566709874,
          62.1895003918727
        ]
      }
    }
  ]
}